[
    {
        "Altitude(m)": 558431.1505817308,
        "Argument of Periapsis(deg)": 0.0,
        "Eccentricity": 0.0,
        "Inclination(deg)": 53.0,
        "Latitude(deg)": 46.73417098365022,
        "Longitude(deg)": 127.80180481633236,
        "Mean Anomaly(deg)": 65.45449999999998,
        "RAAN(deg)": 175.0,
        "Satellite Name": "Starlink Shell 1 774",
        "Satellite Number": 774,
        "Semi-Major Axis(m)": 6931778.249405717,
        "Time(s)": 0
    },
    {
        "Altitude(m)": 558499.6598011163,
        "Argument of Periapsis(deg)": 0.00034857847951123687,
        "Eccentricity": 0.0,
        "Inclination(deg)": 53.0,
        "Latitude(deg)": 47.03465522430325,
        "Longitude(deg)": 128.56378276073386,
        "Mean Anomaly(deg)": 66.08133120355676,
        "RAAN(deg)": 174.99948122992254,
        "Satellite Name": "Starlink Shell 1 774",
        "Satellite Number": 774,
        "Semi-Major Axis(m)": 6931778.249405717,
        "Time(s)": 10
    },
    {
        "Altitude(m)": 558566.9504910507,
        "Argument of Periapsis(deg)": 0.0006971569590224737,
        "Eccentricity": 0.0,
        "Inclination(deg)": 53.0,
        "Latitude(deg)": 47.32942826472144,
        "Longitude(deg)": 129.33473442249758,
        "Mean Anomaly(deg)": 66.70816240711339,
        "RAAN(deg)": 174.99896245984505,
        "Satellite Name": "Starlink Shell 1 774",
        "Satellite Number": 774,
        "Semi-Major Axis(m)": 6931778.249405717,
        "Time(s)": 20
    },
    {
        "Altitude(m)": 558632.9811538102,
        "Argument of Periapsis(deg)": 0.0010457354385337105,
        "Eccentricity": 0.0,
        "Inclination(deg)": 53.0,
        "Latitude(deg)": 47.61836816857389,
        "Longitude(deg)": 130.1146761014833,
        "Mean Anomaly(deg)": 67.33499361067017,
        "RAAN(deg)": 174.99844368976758,
        "Satellite Name": "Starlink Shell 1 774",
        "Satellite Number": 774,
        "Semi-Major Axis(m)": 6931778.249405717,
        "Time(s)": 30
    },
    {
        "Altitude(m)": 558697.7111353885,
        "Argument of Periapsis(deg)": 0.0013943139180449475,
        "Eccentricity": 0.0,
        "Inclination(deg)": 53.0,
        "Latitude(deg)": 47.90135215240982,
        "Longitude(deg)": 130.9036145260605,
        "Mean Anomaly(deg)": 67.96182481422684,
        "RAAN(deg)": 174.99792491969012,
        "Satellite Name": "Starlink Shell 1 774",
        "Satellite Number": 774,
        "Semi-Major Axis(m)": 6931778.249405717,
        "Time(s)": 40
    },
    {
        "Altitude(m)": 558761.1006456175,
        "Argument of Periapsis(deg)": 0.0017428923975561844,
        "Eccentricity": 0.0,
        "Inclination(deg)": 53.0,
        "Latitude(deg)": 48.17825672662935,
        "Longitude(deg)": 131.70154528534056,
        "Mean Anomaly(deg)": 68.58865601778359,
        "RAAN(deg)": 174.99740614961263,
        "Satellite Name": "Starlink Shell 1 774",
        "Satellite Number": 774,
        "Semi-Major Axis(m)": 6931778.249405717,
        "Time(s)": 50
    },
    {
        "Altitude(m)": 558823.1107778576,
        "Argument of Periapsis(deg)": 0.002091470877067421,
        "Eccentricity": 0.0,
        "Inclination(deg)": 53.0,
        "Latitude(deg)": 48.4489578475122,
        "Longitude(deg)": 132.5084527760522,
        "Mean Anomaly(deg)": 69.21548722134031,
        "RAAN(deg)": 174.99688737953517,
        "Satellite Name": "Starlink Shell 1 774",
        "Satellite Number": 774,
        "Semi-Major Axis(m)": 6931778.249405717,
        "Time(s)": 60
    },
    {
        "Altitude(m)": 558883.703528222,
        "Argument of Periapsis(deg)": 0.0024400493565786582,
        "Eccentricity": 0.0,
        "Inclination(deg)": 53.0,
        "Latitude(deg)": 48.71333108043838,
        "Longitude(deg)": 133.3243101546262,
        "Mean Anomaly(deg)": 69.84231842489697,
        "RAAN(deg)": 174.9963686094577,
        "Satellite Name": "Starlink Shell 1 774",
        "Satellite Number": 774,
        "Semi-Major Axis(m)": 6931778.249405717,
        "Time(s)": 70
    },
    {
        "Altitude(m)": 558942.8418143473,
        "Argument of Periapsis(deg)": 0.002788627836089895,
        "Eccentricity": 0.0,
        "Inclination(deg)": 53.0,
        "Latitude(deg)": 48.97125177436706,
        "Longitude(deg)": 134.14907778534152,
        "Mean Anomaly(deg)": 70.46914962845372,
        "RAAN(deg)": 174.9958498393802,
        "Satellite Name": "Starlink Shell 1 774",
        "Satellite Number": 774,
        "Semi-Major Axis(m)": 6931778.249405717,
        "Time(s)": 80
    },
    {
        "Altitude(m)": 559000.4894936917,
        "Argument of Periapsis(deg)": 0.0031372063156011316,
        "Eccentricity": 0.0,
        "Inclination(deg)": 53.0,
        "Latitude(deg)": 49.22259524756264,
        "Longitude(deg)": 134.98270321429783,
        "Mean Anomaly(deg)": 71.0959808320104,
        "RAAN(deg)": 174.99533106930275,
        "Satellite Name": "Starlink Shell 1 774",
        "Satellite Number": 774,
        "Semi-Major Axis(m)": 6931778.249405717,
        "Time(s)": 90
    },
    {
        "Altitude(m)": 559056.6113813457,
        "Argument of Periapsis(deg)": 0.0034857847951123688,
        "Eccentricity": 0.0,
        "Inclination(deg)": 53.0,
        "Latitude(deg)": 49.467236984481524,
        "Longitude(deg)": 135.82512116062122,
        "Mean Anomaly(deg)": 71.72281203556712,
        "RAAN(deg)": 174.9948122992253,
        "Satellite Name": "Starlink Shell 1 774",
        "Satellite Number": 774,
        "Semi-Major Axis(m)": 6931778.249405717,
        "Time(s)": 100
    },
    {
        "Altitude(m)": 559111.1732673707,
        "Argument of Periapsis(deg)": 0.003834363274623606,
        "Eccentricity": 0.0,
        "Inclination(deg)": 53.0,
        "Latitude(deg)": 49.705052843644815,
        "Longitude(deg)": 136.67625201655272,
        "Mean Anomaly(deg)": 72.34964323912386,
        "RAAN(deg)": 174.9942935291478,
        "Satellite Name": "Starlink Shell 1 774",
        "Satellite Number": 774,
        "Semi-Major Axis(m)": 6931778.249405717,
        "Time(s)": 110
    },
    {
        "Altitude(m)": 559164.1419336455,
        "Argument of Periapsis(deg)": 0.004182941754134842,
        "Eccentricity": 0.0,
        "Inclination(deg)": 53.0,
        "Latitude(deg)": 49.93591927622344,
        "Longitude(deg)": 137.53600188692315,
        "Mean Anomaly(deg)": 72.97647444268054,
        "RAAN(deg)": 174.99377475907033,
        "Satellite Name": "Starlink Shell 1 774",
        "Satellite Number": 774,
        "Semi-Major Axis(m)": 6931778.249405717,
        "Time(s)": 120
    },
    {
        "Altitude(m)": 559215.4851701907,
        "Argument of Periapsis(deg)": 0.004531520233646079,
        "Eccentricity": 0.0,
        "Inclination(deg)": 53.0,
        "Latitude(deg)": 50.15971355496513,
        "Longitude(deg)": 138.4042626600727,
        "Mean Anomaly(deg)": 73.6033056462373,
        "RAAN(deg)": 174.99325598899287,
        "Satellite Name": "Starlink Shell 1 774",
        "Satellite Number": 774,
        "Semi-Major Axis(m)": 6931778.249405717,
        "Time(s)": 130
    },
    {
        "Altitude(m)": 559265.1717910196,
        "Argument of Periapsis(deg)": 0.0048800987131573164,
        "Eccentricity": 0.0,
        "Inclination(deg)": 53.0,
        "Latitude(deg)": 50.37631401298683,
        "Longitude(deg)": 139.2809106024244,
        "Mean Anomaly(deg)": 74.23013684979395,
        "RAAN(deg)": 174.99273721891538,
        "Satellite Name": "Starlink Shell 1 774",
        "Satellite Number": 774,
        "Semi-Major Axis(m)": 6931778.249405717,
        "Time(s)": 140
    },
    {
        "Altitude(m)": 559313.1716494393,
        "Argument of Periapsis(deg)": 0.005228677192668553,
        "Eccentricity": 0.0,
        "Inclination(deg)": 53.0,
        "Latitude(deg)": 50.585600291838794,
        "Longitude(deg)": 140.165806507648,
        "Mean Anomaly(deg)": 74.85696805335073,
        "RAAN(deg)": 174.99221844883792,
        "Satellite Name": "Starlink Shell 1 774",
        "Satellite Number": 774,
        "Semi-Major Axis(m)": 6931778.249405717,
        "Time(s)": 150
    },
    {
        "Altitude(m)": 559359.4556528582,
        "Argument of Periapsis(deg)": 0.00557725567217979,
        "Eccentricity": 0.0,
        "Inclination(deg)": 53.0,
        "Latitude(deg)": 50.78745359813611,
        "Longitude(deg)": 141.05879589276734,
        "Mean Anomaly(deg)": 75.48379925690745,
        "RAAN(deg)": 174.99169967876045,
        "Satellite Name": "Starlink Shell 1 774",
        "Satellite Number": 774,
        "Semi-Major Axis(m)": 6931778.249405717,
        "Time(s)": 160
    },
    {
        "Altitude(m)": 559403.9957770576,
        "Argument of Periapsis(deg)": 0.0059258341516910265,
        "Eccentricity": 0.0,
        "Inclination(deg)": 53.0,
        "Latitude(deg)": 50.981756967936086,
        "Longitude(deg)": 141.9597077335586,
        "Mean Anomaly(deg)": 76.11063046046414,
        "RAAN(deg)": 174.99118090868296,
        "Satellite Name": "Starlink Shell 1 774",
        "Satellite Number": 774,
        "Semi-Major Axis(m)": 6931778.249405717,
        "Time(s)": 170
    },
    {
        "Altitude(m)": 559446.7650799335,
        "Argument of Periapsis(deg)": 0.006274412631202263,
        "Eccentricity": 0.0,
        "Inclination(deg)": 53.0,
        "Latitude(deg)": 51.16839553791339,
        "Longitude(deg)": 142.86835477012647,
        "Mean Anomaly(deg)": 76.73746166402087,
        "RAAN(deg)": 174.9906621386055,
        "Satellite Name": "Starlink Shell 1 774",
        "Satellite Number": 774,
        "Semi-Major Axis(m)": 6931778.249405717,
        "Time(s)": 180
    }
]